STARLINK-32105          
1 59689U 24086H   25265.11278718  .00002123  00000+0  86634-4 0  9990
2 59689  43.0006 291.6602 0001011 269.5474  90.5261 15.27581357 78336
STARLINK-32106          
1 59690U 24086J   25264.75084804  .00000810  00000+0  38946-4 0  9996
2 59690  43.0015 286.3223 0000907 272.8347  87.2401 15.27579312 78367
STARLINK-32090          
1 59691U 24086K   25265.09959700  .00001440  00000+0  61850-4 0  9991
2 59691  43.0018 295.8774 0001004 272.0382  88.0354 15.27578897 78281
STARLINK-32088          
1 59693U 24086M   25264.75855318  .00002821  00000+0  11202-3 0  9994
2 59693  43.0047 286.3778 0001125 268.4159  91.6564 15.27579048 78360
STARLINK-32107          
1 59694U 24086N   25264.43336775  .00001583  00000+0  67011-4 0  9995
2 59694  43.0013 296.0167 0001027 277.0875  82.9859 15.27582763 78229
STARLINK-32104          
1 59695U 24086P   25264.75948514  .00000512  00000+0  28136-4 0  9997
2 59695  43.0007 290.6336 0001331 273.3522  86.7177 15.27580919 78313
STARLINK-32094          
1 59696U 24086Q   25264.43722120  .00001720  00000+0  72012-4 0  9990
2 59696  43.0014 296.0453 0001017 272.0078  88.0657 15.27584142 78225
STARLINK-32099          
1 59697U 24086R   25265.11663971 -.00000048  00000+0  77559-5 0  9990
2 59697  43.0008 291.6886 0000859 264.4373  95.6381 15.27575986 78332
STARLINK-32096          
1 59698U 24086S   25265.13077515  .00000179  00000+0  16021-4 0  9996
2 59698  43.0026 291.7921 0001019 261.8225  98.2511 15.27575993 78332
STARLINK-32102          
1 59699U 24086T   25265.12306381  .00010042  00000+0  37375-3 0  9996
2 59699  42.9996 291.7362 0000301 322.9456  37.1375 15.27596620 78334
STARLINK-32092          
1 59700U 24086U   25264.48718856 -.00000011  00000+0  91152-5 0  9992
2 59700  43.0041 295.5607 0001212 260.8505  99.2210 15.27583852 78230
STARLINK-32093          
1 59701U 24086V   25265.13849161 -.00000587  00000+0 -11805-4 0  9995
2 59701  43.0065 291.8508 0001424 283.1398  76.9295 15.27574288 78338
STARLINK-32087          
1 59702U 24086W   25265.12691926  .00001287  00000+0  56291-4 0  9993
2 59702  43.0009 291.7612 0000579 201.8457 158.2370 15.27578454 78332
STARLINK-32086          
1 59703U 24086X   25265.10892976  .00005932  00000+0  22486-3 0  9999
2 59703  42.9965 291.6303 0001192 284.6045  75.4674 15.27584084 78335
STARLINK-32098          
1 59704U 24086Y   25264.10258193  .00001602  00000+0  67728-4 0  9995
2 59704  43.0012 297.8402 0001316 275.5312  84.5390 15.27579670 78176
STARLINK-11107 [DTC]    
1 59708U 24088A   25265.20216688  .00000044  00000+0  52166-5 0  9996
2 59708  53.1587  76.5513 0000792  93.4258 266.6850 15.69709769 79790
