[{"OBJECT_NAME":"STARLINK-32105","OBJECT_ID":"2024-086H","EPOCH":"2025-09-22T02:42:24.812352","MEAN_MOTION":15.27581357,"ECCENTRICITY":0.00010118,"INCLINATION":43.0006,"RA_OF_ASC_NODE":291.6602,"ARG_OF_PERICENTER":269.5474,"MEAN_ANOMALY":90.5261,"EPHEMERIS_TYPE":0,"CLASSIFICATION_TYPE":"U","NORAD_CAT_ID":59689,"ELEMENT_SET_NO":999,"REV_AT_EPOCH":7833,"BSTAR":8.6634152e-5,"MEAN_MOTION_DOT":2.123e-5,"MEAN_MOTION_DDOT":0},{"OBJECT_NAME":"STARLINK-32106","OBJECT_ID":"2024-086J","EPOCH":"2025-09-21T18:01:13.270656","MEAN_MOTION":15.27579312,"ECCENTRICITY":9.072e-5,"INCLINATION":43.0015,"RA_OF_ASC_NODE":286.3223,"ARG_OF_PERICENTER":272.8347,"MEAN_ANOMALY":87.2401,"EPHEMERIS_TYPE":0,"CLASSIFICATION_TYPE":"U","NORAD_CAT_ID":59690,"ELEMENT_SET_NO":999,"REV_AT_EPOCH":7836,"BSTAR":3.8945904e-5,"MEAN_MOTION_DOT":8.1e-6,"MEAN_MOTION_DDOT":0},{"OBJECT_NAME":"STARLINK-32090","OBJECT_ID":"2024-086K","EPOCH":"2025-09-22T02:23:25.180800","MEAN_MOTION":15.27578897,"ECCENTRICITY":0.00010045,"INCLINATION":43.0018,"RA_OF_ASC_NODE":295.8774,"ARG_OF_PERICENTER":272.0382,"MEAN_ANOMALY":88.0354,"EPHEMERIS_TYPE":0,"CLASSIFICATION_TYPE":"U","NORAD_CAT_ID":59691,"ELEMENT_SET_NO":999,"REV_AT_EPOCH":7828,"BSTAR":6.1849974e-5,"MEAN_MOTION_DOT":1.44e-5,"MEAN_MOTION_DDOT":0},{"OBJECT_NAME":"STARLINK-32088","OBJECT_ID":"2024-086M","EPOCH":"2025-09-21T18:12:18.994752","MEAN_MOTION":15.27579048,"ECCENTRICITY":0.00011257,"INCLINATION":43.0047,"RA_OF_ASC_NODE":286.3778,"ARG_OF_PERICENTER":268.4159,"MEAN_ANOMALY":91.6564,"EPHEMERIS_TYPE":0,"CLASSIFICATION_TYPE":"U","NORAD_CAT_ID":59693,"ELEMENT_SET_NO":999,"REV_AT_EPOCH":7836,"BSTAR":0.00011201767,"MEAN_MOTION_DOT":2.821e-5,"MEAN_MOTION_DDOT":0},{"OBJECT_NAME":"STARLINK-32107","OBJECT_ID":"2024-086N","EPOCH":"2025-09-21T10:24:02.973600","MEAN_MOTION":15.27582763,"ECCENTRICITY":0.0001027,"INCLINATION":43.0013,"RA_OF_ASC_NODE":296.0167,"ARG_OF_PERICENTER":277.0875,"MEAN_ANOMALY":82.9859,"EPHEMERIS_TYPE":0,"CLASSIFICATION_TYPE":"U","NORAD_CAT_ID":59694,"ELEMENT_SET_NO":999,"REV_AT_EPOCH":7822,"BSTAR":6.7010769e-5,"MEAN_MOTION_DOT":1.583e-5,"MEAN_MOTION_DDOT":0},{"OBJECT_NAME":"STARLINK-32104","OBJECT_ID":"2024-086P","EPOCH":"2025-09-21T18:13:39.516096","MEAN_MOTION":15.27580919,"ECCENTRICITY":0.00013317,"INCLINATION":43.0007,"RA_OF_ASC_NODE":290.6336,"ARG_OF_PERICENTER":273.3522,"MEAN_ANOMALY":86.7177,"EPHEMERIS_TYPE":0,"CLASSIFICATION_TYPE":"U","NORAD_CAT_ID":59695,"ELEMENT_SET_NO":999,"REV_AT_EPOCH":7831,"BSTAR":2.813598e-5,"MEAN_MOTION_DOT":5.12e-6,"MEAN_MOTION_DDOT":0},{"OBJECT_NAME":"STARLINK-32094","OBJECT_ID":"2024-086Q","EPOCH":"2025-09-21T10:29:35.911680","MEAN_MOTION":15.27584142,"ECCENTRICITY":0.00010176,"INCLINATION":43.0014,"RA_OF_ASC_NODE":296.0453,"ARG_OF_PERICENTER":272.0078,"MEAN_ANOMALY":88.0657,"EPHEMERIS_TYPE":0,"CLASSIFICATION_TYPE":"U","NORAD_CAT_ID":59696,"ELEMENT_SET_NO":999,"REV_AT_EPOCH":7822,"BSTAR":7.2012024e-5,"MEAN_MOTION_DOT":1.72e-5,"MEAN_MOTION_DDOT":0},{"OBJECT_NAME":"STARLINK-32099","OBJECT_ID":"2024-086R","EPOCH":"2025-09-22T02:47:57.670944","MEAN_MOTION":15.27575986,"ECCENTRICITY":8.596e-5,"INCLINATION":43.0008,"RA_OF_ASC_NODE":291.6886,"ARG_OF_PERICENTER":264.4373,"MEAN_ANOMALY":95.6381,"EPHEMERIS_TYPE":0,"CLASSIFICATION_TYPE":"U","NORAD_CAT_ID":59697,"ELEMENT_SET_NO":999,"REV_AT_EPOCH":7833,"BSTAR":7.755895e-6,"MEAN_MOTION_DOT":-4.8e-7,"MEAN_MOTION_DDOT":0},{"OBJECT_NAME":"STARLINK-32096","OBJECT_ID":"2024-086S","EPOCH":"2025-09-22T03:08:18.972960","MEAN_MOTION":15.27575993,"ECCENTRICITY":0.00010197,"INCLINATION":43.0026,"RA_OF_ASC_NODE":291.7921,"ARG_OF_PERICENTER":261.8225,"MEAN_ANOMALY":98.2511,"EPHEMERIS_TYPE":0,"CLASSIFICATION_TYPE":"U","NORAD_CAT_ID":59698,"ELEMENT_SET_NO":999,"REV_AT_EPOCH":7833,"BSTAR":1.6020962e-5,"MEAN_MOTION_DOT":1.79e-6,"MEAN_MOTION_DDOT":0},{"OBJECT_NAME":"STARLINK-32102","OBJECT_ID":"2024-086T","EPOCH":"2025-09-22T02:57:12.713184","MEAN_MOTION":15.2759662,"ECCENTRICITY":3.016e-5,"INCLINATION":42.9996,"RA_OF_ASC_NODE":291.7362,"ARG_OF_PERICENTER":322.9456,"MEAN_ANOMALY":37.1375,"EPHEMERIS_TYPE":0,"CLASSIFICATION_TYPE":"U","NORAD_CAT_ID":59699,"ELEMENT_SET_NO":999,"REV_AT_EPOCH":7833,"BSTAR":0.00037374797,"MEAN_MOTION_DOT":0.00010042,"MEAN_MOTION_DDOT":0},{"OBJECT_NAME":"STARLINK-32092","OBJECT_ID":"2024-086U","EPOCH":"2025-09-21T11:41:33.091584","MEAN_MOTION":15.27583852,"ECCENTRICITY":0.00012128,"INCLINATION":43.0041,"RA_OF_ASC_NODE":295.5607,"ARG_OF_PERICENTER":260.8505,"MEAN_ANOMALY":99.221,"EPHEMERIS_TYPE":0,"CLASSIFICATION_TYPE":"U","NORAD_CAT_ID":59700,"ELEMENT_SET_NO":999,"REV_AT_EPOCH":7823,"BSTAR":9.115229e-6,"MEAN_MOTION_DOT":-1.1e-7,"MEAN_MOTION_DDOT":0},{"OBJECT_NAME":"STARLINK-32093","OBJECT_ID":"2024-086V","EPOCH":"2025-09-22T03:19:25.675104","MEAN_MOTION":15.27574288,"ECCENTRICITY":0.00014246,"INCLINATION":43.0065,"RA_OF_ASC_NODE":291.8508,"ARG_OF_PERICENTER":283.1398,"MEAN_ANOMALY":76.9295,"EPHEMERIS_TYPE":0,"CLASSIFICATION_TYPE":"U","NORAD_CAT_ID":59701,"ELEMENT_SET_NO":999,"REV_AT_EPOCH":7833,"BSTAR":-1.1804707e-5,"MEAN_MOTION_DOT":-5.87e-6,"MEAN_MOTION_DDOT":0},{"OBJECT_NAME":"STARLINK-32087","OBJECT_ID":"2024-086W","EPOCH":"2025-09-22T03:02:45.824064","MEAN_MOTION":15.27578454,"ECCENTRICITY":5.795e-5,"INCLINATION":43.0009,"RA_OF_ASC_NODE":291.7612,"ARG_OF_PERICENTER":201.8457,"MEAN_ANOMALY":158.237,"EPHEMERIS_TYPE":0,"CLASSIFICATION_TYPE":"U","NORAD_CAT_ID":59702,"ELEMENT_SET_NO":999,"REV_AT_EPOCH":7833,"BSTAR":5.6291433e-5,"MEAN_MOTION_DOT":1.287e-5,"MEAN_MOTION_DDOT":0},{"OBJECT_NAME":"STARLINK-32086","OBJECT_ID":"2024-086X","EPOCH":"2025-09-22T02:36:51.531264","MEAN_MOTION":15.27584084,"ECCENTRICITY":0.00011924,"INCLINATION":42.9965,"RA_OF_ASC_NODE":291.6303,"ARG_OF_PERICENTER":284.6045,"MEAN_ANOMALY":75.4674,"EPHEMERIS_TYPE":0,"CLASSIFICATION_TYPE":"U","NORAD_CAT_ID":59703,"ELEMENT_SET_NO":999,"REV_AT_EPOCH":7833,"BSTAR":0.00022486307,"MEAN_MOTION_DOT":5.932e-5,"MEAN_MOTION_DDOT":0},{"OBJECT_NAME":"STARLINK-32098","OBJECT_ID":"2024-086Y","EPOCH":"2025-09-21T02:27:43.078752","MEAN_MOTION":15.2757967,"ECCENTRICITY":0.00013168,"INCLINATION":43.0012,"RA_OF_ASC_NODE":297.8402,"ARG_OF_PERICENTER":275.5312,"MEAN_ANOMALY":84.539,"EPHEMERIS_TYPE":0,"CLASSIFICATION_TYPE":"U","NORAD_CAT_ID":59704,"ELEMENT_SET_NO":999,"REV_AT_EPOCH":7817,"BSTAR":6.7728028e-5,"MEAN_MOTION_DOT":1.602e-5,"MEAN_MOTION_DDOT":0},{"OBJECT_NAME":"STARLINK-11107 [DTC]","OBJECT_ID":"2024-088A","EPOCH":"2025-09-22T04:51:07.218432","MEAN_MOTION":15.69709769,"ECCENTRICITY":7.922e-5,"INCLINATION":53.1587,"RA_OF_ASC_NODE":76.5513,"ARG_OF_PERICENTER":93.4258,"MEAN_ANOMALY":266.685,"EPHEMERIS_TYPE":0,"CLASSIFICATION_TYPE":"U","NORAD_CAT_ID":59708,"ELEMENT_SET_NO":999,"REV_AT_EPOCH":7979,"BSTAR":5.216629e-6,"MEAN_MOTION_DOT":4.4e-7,"MEAN_MOTION_DDOT":0}]
